{"type": "FeatureCollection", "features": [ {"type": "Feature", "properties": {"norad_id": 66376, "name": "SHIYAN-32 01", "group": "last-30-days", "lat": -50.83193817141979, "lon": 147.55526087245138, "alt_km": 444.43898027728756, "timestamp": "2025-12-04T21:36:14.650935+00:00", "meta": {"OBJECT_NAME": "SHIYAN-32 01", "OBJECT_ID": "2025-255A", "EPOCH": "2025-12-04T15:42:44.913600", "MEAN_MOTION": 15.4237372, "ECCENTRICITY": 0.00134686, "INCLINATION": 52.9961, "RA_OF_ASC_NODE": 216.5093, "ARG_OF_PERICENTER": 17.1505, "MEAN_ANOMALY": 342.9952, "EPHEMERIS_TYPE": 0, "CLASSIFICATION_TYPE": "U", "NORAD_CAT_ID": 66376, "ELEMENT_SET_NO": 999, "REV_AT_EPOCH": 410, "BSTAR": 0.00085518116, "MEAN_MOTION_DOT": 0.00037366, "MEAN_MOTION_DDOT": 0}, "tle": {"line1": "1 66376U 25255A   25338.65468650  .00037366  00000+0  85518-3 0  9992", "line2": "2 66376  52.9961 216.5093 0013468  17.1505 342.9952 15.42373720  4102"}}, "geometry": {"type": "Point", "coordinates": [147.55526087245138, -50.83193817141979]}}, {"type": "Feature", "properties": {"norad_id": 66377, "name": "CZ-11 DEB", "group": "last-30-days", "lat": -2.499305924860755, "lon": -146.68771432978275, "alt_km": 427.262343348415, "timestamp": "2025-12-04T21:36:14.650945+00:00", "meta": {"OBJECT_NAME": "CZ-11 DEB", "OBJECT_ID": "2025-255B", "EPOCH": "2025-12-04T15:24:08.631648", "MEAN_MOTION": 15.43708139, "ECCENTRICITY": 0.00139565, "INCLINATION": 52.9952, "RA_OF_ASC_NODE": 216.4291, "ARG_OF_PERICENTER": 14.6433, "MEAN_ANOMALY": 345.4973, "EPHEMERIS_TYPE": 0, "CLASSIFICATION_TYPE": "U", "NORAD_CAT_ID": 66377, "ELEMENT_SET_NO": 999, "REV_AT_EPOCH": 396, "BSTAR": 0.0015357571, "MEAN_MOTION_DOT": 0.00070875, "MEAN_MOTION_DDOT": 0}, "tle": {"line1": "1 66377U 25255B   25338.64176657  .00070875  00000+0  15358-2 0  9991", "line2": "2 66377  52.9952 216.4291 0013956  14.6433 345.4973 15.43708139  3967"}}, "geometry": {"type": "Point", "coordinates": [-146.68771432978275, -2.499305924860755]}}, {"type": "Feature", "properties": {"norad_id": 66378, "name": "SHIYAN-32 02", "group": "last-30-days", "lat": 22.388046913021157, "lon": -126.76150250526366, "alt_km": 422.7734380870288, "timestamp": "2025-12-04T21:36:14.650957+00:00", "meta": {"OBJECT_NAME": "SHIYAN-32 02", "OBJECT_ID": "2025-255C", "EPOCH": "2025-12-04T15:16:07.362048", "MEAN_MOTION": 15.44291294, "ECCENTRICITY": 0.00123679, "INCLINATION": 52.9947, "RA_OF_ASC_NODE": 216.3956, "ARG_OF_PERICENTER": 13.045, "MEAN_ANOMALY": 347.0872, "EPHEMERIS_TYPE": 0, "CLASSIFICATION_TYPE": "U", "NORAD_CAT_ID": 66378, "ELEMENT_SET_NO": 999, "REV_AT_EPOCH": 396, "BSTAR": 0.001625252, "MEAN_MOTION_DOT": 0.00076533, "MEAN_MOTION_DDOT": 0}, "tle": {"line1": "1 66378U 25255C   25338.63619632  .00076533  00000+0  16253-2 0  9998", "line2": "2 66378  52.9947 216.3956 0012367  13.0450 347.0872 15.44291294  3962"}}, "geometry": {"type": "Point", "coordinates": [-126.76150250526366, 22.388046913021157]}}, {"type": "Feature", "properties": {"norad_id": 66379, "name": "SHIYAN-32 03", "group": "last-30-days", "lat": -32.843609549210754, "lon": -173.85628505912024, "alt_km": 437.0045946169412, "timestamp": "2025-12-04T21:36:14.650967+00:00", "meta": {"OBJECT_NAME": "SHIYAN-32 03", "OBJECT_ID": "2025-255D", "EPOCH": "2025-12-04T15:34:09.643008", "MEAN_MOTION": 15.42715265, "ECCENTRICITY": 0.00155168, "INCLINATION": 52.9965, "RA_OF_ASC_NODE": 216.4729, "ARG_OF_PERICENTER": 18.0993, "MEAN_ANOMALY": 342.056, "EPHEMERIS_TYPE": 0, "CLASSIFICATION_TYPE": "U", "NORAD_CAT_ID": 66379, "ELEMENT_SET_NO": 999, "REV_AT_EPOCH": 398, "BSTAR": 0.0007332841, "MEAN_MOTION_DOT": 0.00032365, "MEAN_MOTION_DDOT": 0}, "tle": {"line1": "1 66379U 25255D   25338.64872272  .00032365  00000+0  73328-3 0  9993", "line2": "2 66379  52.9965 216.4729 0015516  18.0993 342.0560 15.42715265  3986"}}, "geometry": {"type": "Point", "coordinates": [-173.85628505912024, -32.843609549210754]}}, {"type": "Feature", "properties": {"norad_id": 66380, "name": "STARLINK-35139", "group": "last-30-days", "lat": -46.732491337932686, "lon": 174.3924795274946, "alt_km": 453.09504867151554, "timestamp": "2025-12-04T21:36:14.650977+00:00", "meta": {"OBJECT_NAME": "STARLINK-35139", "OBJECT_ID": "2025-257A", "EPOCH": "2025-12-04T14:00:01.000224", "MEAN_MOTION": 15.39534146, "ECCENTRICITY": 0.00017655, "INCLINATION": 53.1588, "RA_OF_ASC_NODE": 303.0867, "ARG_OF_PERICENTER": 94.4822, "MEAN_ANOMALY": 194.0314, "EPHEMERIS_TYPE": 0, "CLASSIFICATION_TYPE": "U", "NORAD_CAT_ID": 66380, "ELEMENT_SET_NO": 999, "REV_AT_EPOCH": 512, "BSTAR": 0.00099418106, "MEAN_MOTION_DOT": 0.00039461, "MEAN_MOTION_DDOT": 0}, "tle": {"line1": "1 66380U 25257A   25338.58334491  .00039461  00000+0  99418-3 0  9998", "line2": "2 66380  53.1588 303.0867 0001765  94.4822 194.0314 15.39534146  5121"}}, "geometry": {"type": "Point", "coordinates": [174.3924795274946, -46.732491337932686]}}, {"type": "Feature", "properties": {"norad_id": 66381, "name": "STARLINK-35158", "group": "last-30-days", "lat": -47.60294767159949, "lon": 176.7906199612387, "alt_km": 452.4657376220557, "timestamp": "2025-12-04T21:36:14.650988+00:00", "meta": {"OBJECT_NAME": "STARLINK-35158", "OBJECT_ID": "2025-257B", "EPOCH": "2025-12-04T14:00:01.000224", "MEAN_MOTION": 15.39605113, "ECCENTRICITY": 7.03e-05, "INCLINATION": 53.1589, "RA_OF_ASC_NODE": 303.0826, "ARG_OF_PERICENTER": 105.3631, "MEAN_ANOMALY": 184.97, "EPHEMERIS_TYPE": 0, "CLASSIFICATION_TYPE": "U", "NORAD_CAT_ID": 66381, "ELEMENT_SET_NO": 999, "REV_AT_EPOCH": 518, "BSTAR": -0.0018970614, "MEAN_MOTION_DOT": -0.00075493, "MEAN_MOTION_DDOT": 0}, "tle": {"line1": "1 66381U 25257B   25338.58334491 -.00075493  00000+0 -18971-2 0  9990", "line2": "2 66381  53.1589 303.0826 0000703 105.3631 184.9700 15.39605113  5185"}}, "geometry": {"type": "Point", "coordinates": [176.7906199612387, -47.60294767159949]}}, {"type": "Feature", "properties": {"norad_id": 66382, "name": "STARLINK-35639", "group": "last-30-days", "lat": -53.121890591833775, "lon": -146.3801362032669, "alt_km": 452.93205035671053, "timestamp": "2025-12-04T21:36:14.650998+00:00", "meta": {"OBJECT_NAME": "STARLINK-35639", "OBJECT_ID": "2025-257C", "EPOCH": "2025-12-04T14:00:01.000224", "MEAN_MOTION": 15.39623786, "ECCENTRICITY": 0.0001049, "INCLINATION": 53.1595, "RA_OF_ASC_NODE": 303.0336, "ARG_OF_PERICENTER": 77.8837, "MEAN_ANOMALY": 236.3662, "EPHEMERIS_TYPE": 0, "CLASSIFICATION_TYPE": "U", "NORAD_CAT_ID": 66382, "ELEMENT_SET_NO": 999, "REV_AT_EPOCH": 518, "BSTAR": -0.0023922572, "MEAN_MOTION_DOT": -0.00094916, "MEAN_MOTION_DDOT": 0}, "tle": {"line1": "1 66382U 25257C   25338.58334491 -.00094916  00000+0 -23923-2 0  9995", "line2": "2 66382  53.1595 303.0336 0001049  77.8837 236.3662 15.39623786  5189"}}, "geometry": {"type": "Point", "coordinates": [-146.3801362032669, -53.121890591833775]}}, {"type": "Feature", "properties": {"norad_id": 66383, "name": "STARLINK-35690", "group": "last-30-days", "lat": -45.4964689305166, "lon": -108.22514517865132, "alt_km": 452.74863483843455, "timestamp": "2025-12-04T21:36:14.651008+00:00", "meta": {"OBJECT_NAME": "STARLINK-35690", "OBJECT_ID": "2025-257D", "EPOCH": "2025-12-04T14:00:01.000224", "MEAN_MOTION": 15.3961757, "ECCENTRICITY": 0.00014432, "INCLINATION": 53.1599, "RA_OF_ASC_NODE": 302.982, "ARG_OF_PERICENTER": 73.8353, "MEAN_ANOMALY": 266.1797, "EPHEMERIS_TYPE": 0, "CLASSIFICATION_TYPE": "U", "NORAD_CAT_ID": 66383, "ELEMENT_SET_NO": 999, "REV_AT_EPOCH": 518, "BSTAR": -0.0023079085, "MEAN_MOTION_DOT": -0.00091607, "MEAN_MOTION_DDOT": 0}, "tle": {"line1": "1 66383U 25257D   25338.58334491 -.00091607  00000+0 -23079-2 0  9992", "line2": "2 66383  53.1599 302.9820 0001443  73.8353 266.1797 15.39617570  5181"}}, "geometry": {"type": "Point", "coordinates": [-108.22514517865132, -45.4964689305166]}}, {"type": "Feature", "properties": {"norad_id": 66384, "name": "STARLINK-35662", "group": "last-30-days", "lat": -44.53103487665349, "lon": -106.03662361626029, "alt_km": 452.9045145473292, "timestamp": "2025-12-04T21:36:14.651019+00:00", "meta": {"OBJECT_NAME": "STARLINK-35662", "OBJECT_ID": "2025-257E", "EPOCH": "2025-12-04T14:00:01.000224", "MEAN_MOTION": 15.39617853, "ECCENTRICITY": 0.00015149, "INCLINATION": 53.16, "RA_OF_ASC_NODE": 302.9791, "ARG_OF_PERICENTER": 88.4701, "MEAN_ANOMALY": 253.3743, "EPHEMERIS_TYPE": 0, "CLASSIFICATION_TYPE": "U", "NORAD_CAT_ID": 66384, "ELEMENT_SET_NO": 999, "REV_AT_EPOCH": 518, "BSTAR": -0.0025860016, "MEAN_MOTION_DOT": -0.00102454, "MEAN_MOTION_DDOT": 0}, "tle": {"line1": "1 66384U 25257E   25338.58334491 -.00102454  00000+0 -25860-2 0  9996", "line2": "2 66384  53.1600 302.9791 0001514  88.4701 253.3743 15.39617853  5183"}}, "geometry": {"type": "Point", "coordinates": [-106.03662361626029, -44.53103487665349]}}, {"type": "Feature", "properties": {"norad_id": 66385, "name": "STARLINK-35659", "group": "last-30-days", "lat": -53.029752982284386, "lon": -143.33666962477398, "alt_km": 453.0128698815615, "timestamp": "2025-12-04T21:36:14.651029+00:00", "meta": {"OBJECT_NAME": "STARLINK-35659", "OBJECT_ID": "2025-257F", "EPOCH": "2025-12-04T14:00:01.000224", "MEAN_MOTION": 15.39613607, "ECCENTRICITY": 0.0001107, "INCLINATION": 53.1595, "RA_OF_ASC_NODE": 303.0307, "ARG_OF_PERICENTER": 87.5747, "MEAN_ANOMALY": 228.5209, "EPHEMERIS_TYPE": 0, "CLASSIFICATION_TYPE": "U", "NORAD_CAT_ID": 66385, "ELEMENT_SET_NO": 999, "REV_AT_EPOCH": 518, "BSTAR": -0.0023832659, "MEAN_MOTION_DOT": -0.00094534, "MEAN_MOTION_DDOT": 0}, "tle": {"line1": "1 66385U 25257F   25338.58334491 -.00094534  00000+0 -23833-2 0  9994", "line2": "2 66385  53.1595 303.0307 0001107  87.5747 228.5209 15.39613607  5184"}}, "geometry": {"type": "Point", "coordinates": [-143.33666962477398, -53.029752982284386]}}]}